{
  "type": "FeatureCollection",
  "features": [
    {
      "type": "Feature",
      "properties": {
        "norad_id": 41859,
        "name": "GSAT0207 (GALILEO 15)",
        "group": "gnss",
        "lat": -40.14847169188652,
        "lon": 70.87754736029186,
        "alt_km": 23221.112052575783,
        "timestamp": "2025-12-02T17:49:12.270297+00:00",
        "meta_object_name": "GSAT0207 (GALILEO 15)",
        "meta_object_id": "2016-069A",
        "meta_epoch": "2025-11-30T11:31:32.297952",
        "meta_mean_motion": 1.70474248,
        "meta_eccentricity": 0.00020596,
        "meta_inclination": 55.375,
        "meta_ra_of_asc_node": 106.5899,
        "meta_arg_of_pericenter": 325.7449,
        "meta_mean_anomaly": 34.2162,
        "meta_ephemeris_type": 0,
        "meta_classification_type": "U",
        "meta_norad_cat_id": 41859,
        "meta_element_set_no": 999,
        "meta_rev_at_epoch": 5601,
        "meta_bstar": 0,
        "meta_mean_motion_dot": 4.7e-07,
        "meta_mean_motion_ddot": 0,
        "tle_line1": "1 41859U 16069A   25334.48023493  .00000047  00000+0  00000+0 0  9998",
        "tle_line2": "2 41859  55.3750 106.5899 0002059 325.7449  34.2162  1.70474248 56019"
      },
      "geometry": {
        "type": "Point",
        "coordinates": [
          70.87754736029186,
          -40.14847169188652
        ]
      }
    },
    {
      "type": "Feature",
      "properties": {
        "norad_id": 41860,
        "name": "GSAT0212 (GALILEO 16)",
        "group": "gnss",
        "lat": 30.621975690503035,
        "lon": 130.6315286400606,
        "alt_km": 23211.71648248483,
        "timestamp": "2025-12-02T17:49:12.270308+00:00",
        "meta_object_name": "GSAT0212 (GALILEO 16)",
        "meta_object_id": "2016-069B",
        "meta_epoch": "2025-12-01T12:10:10.642368",
        "meta_mean_motion": 1.70474441,
        "meta_eccentricity": 0.00022648,
        "meta_inclination": 55.3731,
        "meta_ra_of_asc_node": 106.5568,
        "meta_arg_of_pericenter": 35.1599,
        "meta_mean_anomaly": 324.8229,
        "meta_ephemeris_type": 0,
        "meta_classification_type": "U",
        "meta_norad_cat_id": 41860,
        "meta_element_set_no": 999,
        "meta_rev_at_epoch": 5628,
        "meta_bstar": 0,
        "meta_mean_motion_dot": 3.8e-07,
        "meta_mean_motion_ddot": 0,
        "tle_line1": "1 41860U 16069B   25335.50706762  .00000038  00000+0  00000+0 0  9991",
        "tle_line2": "2 41860  55.3731 106.5568 0002264  35.1599 324.8229  1.70474441 56285"
      },
      "geometry": {
        "type": "Point",
        "coordinates": [
          130.6315286400606,
          30.621975690503035
        ]
      }
    },
    {
      "type": "Feature",
      "properties": {
        "norad_id": 41861,
        "name": "GSAT0213 (GALILEO 17)",
        "group": "gnss",
        "lat": 6.052947038696394,
        "lon": -77.69039640910023,
        "alt_km": 23223.810537365454,
        "timestamp": "2025-12-02T17:49:12.270321+00:00",
        "meta_object_name": "GSAT0213 (GALILEO 17)",
        "meta_object_id": "2016-069C",
        "meta_epoch": "2025-12-01T20:59:28.954752",
        "meta_mean_motion": 1.70474717,
        "meta_eccentricity": 0.00020626,
        "meta_inclination": 55.3756,
        "meta_ra_of_asc_node": 106.5542,
        "meta_arg_of_pericenter": 284.0381,
        "meta_mean_anomaly": 75.9044,
        "meta_ephemeris_type": 0,
        "meta_classification_type": "U",
        "meta_norad_cat_id": 41861,
        "meta_element_set_no": 999,
        "meta_rev_at_epoch": 5615,
        "meta_bstar": 0,
        "meta_mean_motion_dot": 3.5e-07,
        "meta_mean_motion_ddot": 0,
        "tle_line1": "1 41861U 16069C   25335.87464068  .00000035  00000+0  00000+0 0  9999",
        "tle_line2": "2 41861  55.3756 106.5542 0002062 284.0381  75.9044  1.70474717 56156"
      },
      "geometry": {
        "type": "Point",
        "coordinates": [
          -77.69039640910023,
          6.052947038696394
        ]
      }
    },
    {
      "type": "Feature",
      "properties": {
        "norad_id": 41862,
        "name": "GSAT0214 (GALILEO 18)",
        "group": "gnss",
        "lat": 54.76473198644451,
        "lon": -175.6051595530189,
        "alt_km": 23218.479698008967,
        "timestamp": "2025-12-02T17:49:12.270332+00:00",
        "meta_object_name": "GSAT0214 (GALILEO 18)",
        "meta_object_id": "2016-069D",
        "meta_epoch": "2025-11-29T16:11:01.864032",
        "meta_mean_motion": 1.70474561,
        "meta_eccentricity": 0.00010374,
        "meta_inclination": 55.3728,
        "meta_ra_of_asc_node": 106.6081,
        "meta_arg_of_pericenter": 291.61,
        "meta_mean_anomaly": 68.3572,
        "meta_ephemeris_type": 0,
        "meta_classification_type": "U",
        "meta_norad_cat_id": 41862,
        "meta_element_set_no": 999,
        "meta_rev_at_epoch": 5624,
        "meta_bstar": 0,
        "meta_mean_motion_dot": 5.1e-07,
        "meta_mean_motion_ddot": 0,
        "tle_line1": "1 41862U 16069D   25333.67432713  .00000051  00000+0  00000+0 0  9996",
        "tle_line2": "2 41862  55.3728 106.6081 0001037 291.6100  68.3572  1.70474561 56248"
      },
      "geometry": {
        "type": "Point",
        "coordinates": [
          -175.6051595530189,
          54.76473198644451
        ]
      }
    },
    {
      "type": "Feature",
      "properties": {
        "norad_id": 42709,
        "name": "SES-15 (WAAS/PRN 133)",
        "group": "gnss",
        "lat": -0.03503272234991085,
        "lon": -150.0738180472375,
        "alt_km": 35785.92907976319,
        "timestamp": "2025-12-02T17:49:12.270346+00:00",
        "meta_object_name": "SES-15 (WAAS/PRN 133)",
        "meta_object_id": "2017-026A",
        "meta_epoch": "2025-12-02T10:45:38.709216",
        "meta_mean_motion": 1.00268451,
        "meta_eccentricity": 3.54e-05,
        "meta_inclination": 0.02,
        "meta_ra_of_asc_node": 343.1092,
        "meta_arg_of_pericenter": 271.331,
        "meta_mean_anomaly": 209.3403,
        "meta_ephemeris_type": 0,
        "meta_classification_type": "U",
        "meta_norad_cat_id": 42709,
        "meta_element_set_no": 999,
        "meta_rev_at_epoch": 546,
        "meta_bstar": 0,
        "meta_mean_motion_dot": 8.1e-07,
        "meta_mean_motion_ddot": 0,
        "tle_line1": "1 42709U 17026A   25336.44836469  .00000081  00000+0  00000+0 0  9998",
        "tle_line2": "2 42709   0.0200 343.1092 0000354 271.3310 209.3403  1.00268451  5460"
      },
      "geometry": {
        "type": "Point",
        "coordinates": [
          -150.0738180472375,
          -0.03503272234991085
        ]
      }
    },
    {
      "type": "Feature",
      "properties": {
        "norad_id": 42738,
        "name": "QZS-2 (QZSS/PRN 194)",
        "group": "gnss",
        "lat": -28.91182778639798,
        "lon": 107.58904568384229,
        "alt_km": 33260.12482540335,
        "timestamp": "2025-12-02T17:49:12.270358+00:00",
        "meta_object_name": "QZS-2 (QZSS/PRN 194)",
        "meta_object_id": "2017-028A",
        "meta_epoch": "2025-11-29T15:03:38.649888",
        "meta_mean_motion": 1.0028652,
        "meta_eccentricity": 0.07597264,
        "meta_inclination": 39.7358,
        "meta_ra_of_asc_node": 246.0747,
        "meta_arg_of_pericenter": 269.3342,
        "meta_mean_anomaly": 280.5316,
        "meta_ephemeris_type": 0,
        "meta_classification_type": "U",
        "meta_norad_cat_id": 42738,
        "meta_element_set_no": 999,
        "meta_rev_at_epoch": 562,
        "meta_bstar": 0,
        "meta_mean_motion_dot": -1.6e-06,
        "meta_mean_motion_ddot": 0,
        "tle_line1": "1 42738U 17028A   25333.62753067 -.00000160  00000+0  00000+0 0  9990",
        "tle_line2": "2 42738  39.7358 246.0747 0759726 269.3342 280.5316  1.00286520  5628"
      },
      "geometry": {
        "type": "Point",
        "coordinates": [
          107.58904568384229,
          -28.91182778639798
        ]
      }
    },
    {
      "type": "Feature",
      "properties": {
        "norad_id": 42917,
        "name": "QZS-3 (QZSS/PRN 199)",
        "group": "gnss",
        "lat": -0.0522294472030579,
        "lon": 106.06241854687688,
        "alt_km": 35792.34950640305,
        "timestamp": "2025-12-02T17:49:12.270371+00:00",
        "meta_object_name": "QZS-3 (QZSS/PRN 199)",
        "meta_object_id": "2017-048A",
        "meta_epoch": "2025-12-02T08:53:51.838368",
        "meta_mean_motion": 1.00276438,
        "meta_eccentricity": 0.000211,
        "meta_inclination": 0.0754,
        "meta_ra_of_asc_node": 224.5611,
        "meta_arg_of_pericenter": 28.6781,
        "meta_mean_anomaly": 78.6565,
        "meta_ephemeris_type": 0,
        "meta_classification_type": "U",
        "meta_norad_cat_id": 42917,
        "meta_element_set_no": 999,
        "meta_rev_at_epoch": 3028,
        "meta_bstar": 0,
        "meta_mean_motion_dot": -3.27e-06,
        "meta_mean_motion_ddot": 0,
        "tle_line1": "1 42917U 17048A   25336.37073887 -.00000327  00000+0  00000+0 0  9996",
        "tle_line2": "2 42917   0.0754 224.5611 0002110  28.6781  78.6565  1.00276438 30289"
      },
      "geometry": {
        "type": "Point",
        "coordinates": [
          106.06241854687688,
          -0.0522294472030579
        ]
      }
    }
  ]
}